NUSAT-45 (UZMASAT-1)    
1 62640U 25009AH  26068.15592621  .00012539  00000+0  48087-3 0  9996
2 62640  97.3985 150.3373 0001172   1.4631 358.6611 15.26632732 63634
STARLINK-32941          
1 63119U 25039R   26068.13754202  .00032157  00000+0  11736-2 0  9992
2 63119  43.0034   4.5285 0001905 261.3183  98.7453 15.27563076 58112
